NOAA 15                 
1 25338U 98030A   20223.95397563  .00000046  00000-0  37931-4 0  9994
2 25338  98.7144 248.7199 0011572 103.3817 256.8653 14.25984532156746
DMSP 5D-3 F15 (USA 147) 
1 25991U 99067A   20223.89711125 -.00000108  00000-0 -31273-4 0  9991
2 25991  98.9736 195.6922 0009180 311.3215  81.1384 14.16476409 68133
METEOSAT-8 (MSG-1)      
1 27509U 02040B   20223.61598462  .00000135  00000-0  00000-0 0  9998
2 27509   6.8161  53.8640 0001463  92.3105  76.4862  1.00270933 65837
DMSP 5D-3 F16 (USA 172) 
1 28054U 03048A   20223.93872674 -.00000105  00000-0 -31888-4 0  9999
2 28054  98.9156 202.8209 0008571  70.5198 314.1840 14.13649099867483
NOAA 18                 
1 28654U 05018A   20223.91810769  .00000045  00000-0  48898-4 0  9999
2 28654  99.0397 280.8448 0015275  79.3556 280.9335 14.12531151784602
METEOSAT-9 (MSG-2)      
1 28912U 05049B   20223.82378051  .00000017  00000-0  00000-0 0  9991
2 28912   4.5360  69.9255 0002048  26.5502 163.2154  1.00276309 53617
FORMOSAT-3 FM6          
1 29047U 06011A   20223.80823501  .00000102  00000-0  56337-4 0  9997
2 29047  71.9801 359.0491 0051404 326.7104  33.0802 14.28746694749083
FORMOSAT-3 FM1          
1 29048U 06011B   20223.82824638  .00000066  00000-0  42303-4 0  9999
2 29048  71.9653 269.8566 0045723 285.7096  73.8999 14.28710424751579
FORMOSAT-3 FM5          
1 29049U 06011C   20223.89623631  .00000034  00000-0  29563-4 0  9995
2 29049  72.0202  81.6753 0036281 310.7895  49.0095 14.28792144747379
FORMOSAT-3 FM3          
1 29050U 06011D   20223.72117694  .00000104  00000-0  32206-4 0  9992
2 29050  72.0139 222.5771 0051358 227.9121 131.7659 14.58936283764246
FORMOSAT-3 FM4          
1 29051U 06011E   20223.75510434  .00000058  00000-0  38342-4 0  9990
2 29051  72.0071 343.9106 0068496 192.3861 167.5595 14.28823018749943
FORMOSAT-3 FM2          
1 29052U 06011F   20223.82076101  .00000043  00000-0  33072-4 0  9996
2 29052  72.0340  58.1459 0041677 271.7984  87.8379 14.28929112748281
GOES 13                 
1 29155U 06018A   20223.85726292  .00000039  00000-0  00000-0 0  9999
2 29155   0.0697 201.7215 0007624 355.1706 132.7722  1.00269700 21945
METOP-A                 
1 29499U 06044A   20223.93627365 -.00000018  00000-0  11184-4 0  9996
2 29499  98.5181 268.8468 0001800  97.5423  64.3879 14.21503627716448
DMSP 5D-3 F17 (USA 191) 
1 29522U 06050A   20223.90002924 -.00000046  00000-0 -10050-5 0  9999
2 29522  98.8008 239.4780 0010413  28.6878 331.4865 14.14014806710407
FENGYUN 3A              
1 32958U 08026A   20223.94318774 -.00000015  00000-0  12488-4 0  9999
2 32958  98.4096 206.8679 0008750 171.3560 188.7769 14.18630612632443
FENGYUN 2E              
1 33463U 08066A   20223.59146521 -.00000205  00000-0  00000-0 0  9999
2 33463   4.4511  68.3847 0002633 299.7005 251.0210  1.00272950 42663
NOAA 19                 
1 33591U 09005A   20223.85491653  .00000028  00000-0  40396-4 0  9991
2 33591  99.1957 230.6183 0012969 284.6243  75.3490 14.12426152592813
GOES 14                 
1 35491U 09033A   20223.60218059 -.00000092  00000-0  00000-0 0  9999
2 35491   0.4462  97.6825 0010120 116.4242 217.6856  1.00270790 40691
METEOR-M 1              
1 35865U 09049A   20223.82939713  .00000018  00000-0  26957-4 0  9992
2 35865  98.4418 208.5677 0003226  51.7395 308.4073 14.22245587565507
DMSP 5D-3 F18 (USA 210) 
1 35951U 09057A   20223.90760937  .00000088  00000-0  69436-4 0  9992
2 35951  98.6474 211.9743 0010346 207.6723 152.3901 14.13291773331377
GOES 15                 
1 36411U 10008A   20223.65393223  .00000053  00000-0  00000+0 0  9993
2 36411   0.0243 154.2764 0002034 306.8216 325.6934  1.00280149 38244
COMS 1                  
1 36744U 10032A   20223.85188534 -.00000345  00000-0  00000-0 0  9994
2 36744   0.0254  89.3381 0000622  46.9563 258.3072  1.00272084 29666
FENGYUN 3B              
1 37214U 10059A   20223.90014515 -.00000011  00000-0  17838-4 0  9990
2 37214  99.0487 206.4851 0017967 111.7595 248.5497 14.15954166505383
SUOMI NPP               
1 37849U 11061A   20223.88992713  .00000008  00000-0  24676-4 0  9993
2 37849  98.7376 161.0877 0001592  88.0617 347.5512 14.19541185455358
FENGYUN 2F              
1 38049U 12002A   20223.15459881 -.00000360  00000-0  00000+0 0  9998
2 38049   2.1834  83.4983 0000765  77.6256 325.6675  1.00280803 31460
METEOSAT-10 (MSG-3)     
1 38552U 12035B   20223.82500182  .00000063  00000-0  00000-0 0  9998
2 38552   1.3650 342.9579 0001594 139.4497 143.7864  1.00270050 29464
METOP-B                 
1 38771U 12049A   20223.92028179 -.00000017  00000-0  12212-4 0  9990
2 38771  98.6876 282.3855 0001234 147.2633  25.5576 14.21501884409761
FENGYUN 3C              
1 39260U 13052A   20223.90033789 -.00000011  00000-0  15538-4 0  9998
2 39260  98.5460 272.0763 0012123  62.9529 297.2881 14.15842950356250
METEOR-M 2              
1 40069U 14037A   20223.84419304 -.00000016  00000-0  11955-4 0  9999
2 40069  98.4986 259.3134 0006743 119.1234 241.0617 14.20674443315930
HIMAWARI-8              
1 40267U 14060A   20223.85188534 -.00000276  00000-0  00000-0 0  9997
2 40267   0.0428 263.9251 0000877 273.9290 229.2572  1.00271121 21330
FENGYUN 2G              
1 40367U 14090A   20223.84288517 -.00000302  00000-0  00000+0 0  9991
2 40367   2.2094  93.9089 0001390 337.7328 291.0763  1.00268000 20617
METEOSAT-11 (MSG-4)     
1 40732U 15034A   20223.82316986 -.00000000  00000-0  00000-0 0  9992
2 40732   0.7134 272.2014 0003431 227.1663 116.9316  1.00276006 18614
ELEKTRO-L 2             
1 41105U 15074A   20223.82247197 -.00000179  00000-0  00000-0 0  9995
2 41105   1.3270  96.6155 0074818  88.5645  66.9535  0.99187535 17090
HIMAWARI-9              
1 41836U 16064A   20223.85188534 -.00000275  00000-0  00000-0 0  9995
2 41836   0.0100 276.9902 0000961 253.5705 236.6513  1.00272889 13763
GOES 16                 
1 41866U 16071A   20223.80807806 -.00000248  00000-0  00000-0 0  9991
2 41866   0.0528 123.9730 0000669  64.4570 346.9958  1.00273897 13694
FENGYUN 4A              
1 41882U 16077A   20221.43313296 -.00000337  00000-0  00000+0 0  9995
2 41882   0.0706  78.5185 0004322  59.2940  80.1939  1.00270997 13539
CYGFM05                 
1 41884U 16078A   20223.92902197  .00000287  00000-0  16868-4 0  9995
2 41884  34.9567  81.5623 0015799 175.6375 184.4476 15.14659864202378
CYGFM04                 
1 41885U 16078B   20223.88089136  .00000272  00000-0  15848-4 0  9991
2 41885  34.9500  74.7626 0014332 186.1885 173.8651 15.15172779202438
CYGFM02                 
1 41886U 16078C   20223.93961772  .00000271  00000-0  15789-4 0  9996
2 41886  34.9591  76.1666 0014997 182.5027 177.5611 15.15171667202436
CYGFM01                 
1 41887U 16078D   20223.90440380  .00000272  00000-0  16182-4 0  9990
2 41887  34.9534  82.9357 0016266 175.9282 184.1563 15.14472338202355
CYGFM08                 
1 41888U 16078E   20223.94711835  .00000266  00000-0  15644-4 0  9996
2 41888  34.9505  78.2244 0015531 183.6436 176.4164 15.14888002202392
CYGFM06                 
1 41889U 16078F   20223.91873975  .00000298  00000-0  17217-4 0  9991
2 41889  34.9584  74.9874 0013952 182.5337 177.5305 15.15165763202432
CYGFM07                 
1 41890U 16078G   20223.89717082  .00000290  00000-0  16816-4 0  9992
2 41890  34.9524  74.1894 0013763 185.6683 174.3875 15.15164214202437
CYGFM03                 
1 41891U 16078H   20223.89274811  .00000286  00000-0  16610-4 0  9998
2 41891  34.9556  74.4783 0013223 184.5076 175.5518 15.15159789202436
FENGYUN 3D              
1 43010U 17072A   20223.91526217 -.00000015  00000-0  13643-4 0  9995
2 43010  98.7524 162.6316 0000606 333.4191  26.6955 14.19746445141921
NOAA 20                 
1 43013U 17073A   20223.83980282 -.00000011  00000-0  15559-4 0  9990
2 43013  98.7189 160.9492 0001122 105.2284 254.9016 14.19559063141370
GOES 17                 
1 43226U 18022A   20223.65218751  .00000097  00000-0  00000+0 0  9999
2 43226   0.0500 274.6567 0000303 240.9266 261.6070  1.00270307  9018
FENGYUN 2H              
1 43491U 18050A   20221.59216098 -.00000131  00000-0  00000+0 0  9997
2 43491   0.5370 271.6862 0003730 231.6337 106.2776  1.00273611  8062
METOP-C                 
1 43689U 18087A   20223.92393222 -.00000017  00000-0  12106-4 0  9998
2 43689  98.6940 282.7145 0002405 158.6443 201.4835 14.21500279 91339
GEO-KOMPSAT-2A          
1 43823U 18100A   20223.85188534 -.00000344  00000-0  00000-0 0  9993
2 43823   0.0150 146.5437 0002181 335.0846 273.0750  1.00272557  6187
IOD-1 GEMS              
1 44385U 98067QK  20223.85383295  .00018499  00000-0  21585-3 0  9991
2 44385  51.6399  58.5734 0002282 163.9678 196.1389 15.61684140 62994
METEOR-M2 2             
1 44387U 19038A   20223.90438833 -.00000020  00000-0  10319-4 0  9995
2 44387  98.6235 182.8779 0002528  80.3775 279.7689 14.23680326 57285
